API VERSION: 1.2
API SOURCE: NASA/JPL Horizons API



*******************************************************************************
Ephemeris / API_USER Tue Mar 31 08:44:41 2026 Pasadena, USA      / Horizons
*******************************************************************************
Target body name: Uranus (799)                    {source: ura184_merged}
Center body name: Sun (10)                        {source: DE441}
Center-site name: BODY CENTER
*******************************************************************************
Start time      : A.D. 2095-Feb-12 12:06:59.9904 TDB
Stop  time      : A.D. 2095-Feb-14 12:06:59.9904 TDB
Step-size       : 60 minutes
*******************************************************************************
Center geodetic : 0.0, 0.0, 0.0                   {E-lon(deg),Lat(deg),Alt(km)}
Center cylindric: 0.0, 0.0, 0.0                   {E-lon(deg),Dxy(km),Dz(km)}
Center radii    : 695700.0, 695700.0, 695700.0 km {Equator_a, b, pole_c}
Output units    : AU-D
Calendar mode   : Mixed Julian/Gregorian
Output type     : GEOMETRIC cartesian states
Output format   : 3 (position, velocity, LT, range, range-rate)
Reference frame : Ecliptic of J2000.0
*******************************************************************************
            JDTDB,            Calendar Date (TDB),                      X,                      Y,                      Z,                     VX,                     VY,                     VZ,                     LT,                     RG,                     RR,
**************************************************************************************************************************************************************************************************************************************************************************
$$SOE
2486286.004861000, A.D. 2095-Feb-12 12:06:59.9904,  2.008356421989715E+01, -3.756950418891206E-03, -2.598940006957254E-01, -3.366123931042896E-05,  3.754792603422422E-03,  1.452087272951013E-05,  1.160027070252152E-01,  2.008524609709842E+01, -3.454864906355893E-05,
2486286.046527667, A.D. 2095-Feb-12 13:06:59.9904,  2.008356281681000E+01, -3.600500763022822E-03, -2.598933956850817E-01, -3.368699168178441E-05,  3.754790876786211E-03,  1.451955828679610E-05,  1.160026987116289E-01,  2.008524465764556E+01, -3.454513450550470E-05,
2486286.088194333, A.D. 2095-Feb-12 14:06:59.9904,  2.008356141264355E+01, -3.444051179184872E-03, -2.598927907389613E-01, -3.371305299242609E-05,  3.754789148346909E-03,  1.451778174852916E-05,  1.160026903988528E-01,  2.008524321833300E+01, -3.454192291561389E-05,
2486286.129861000, A.D. 2095-Feb-12 15:06:59.9904,  2.008356000738401E+01, -3.287601667142431E-03, -2.598921858757198E-01, -3.373946719718187E-05,  3.754787433264730E-03,  1.451558944279583E-05,  1.160026820868086E-01,  2.008524177914716E+01, -3.453905884702536E-05,
2486286.171527667, A.D. 2095-Feb-12 16:06:59.9904,  2.008355860101586E+01, -3.131152225996598E-03, -2.598915811113757E-01, -3.376627148069701E-05,  3.754785748181032E-03,  1.451304726438395E-05,  1.160026737754079E-01,  2.008524034007273E+01, -3.453658033607177E-05,
2486286.213194333, A.D. 2095-Feb-12 17:06:59.9904,  2.008355719352224E+01, -2.974702854133820E-03, -2.598909764588125E-01, -3.379349434954379E-05,  3.754784110630405E-03,  1.451023925211702E-05,  1.160026654645542E-01,  2.008523890109302E+01, -3.453451697598273E-05,
2486286.254861000, A.D. 2095-Feb-12 18:06:59.9904,  2.008355578488525E+01, -2.818253549207755E-03, -2.598903719271312E-01, -3.382115501700954E-05,  3.754782538043042E-03,  1.450726131493395E-05,  1.160026571541449E-01,  2.008523746219027E+01, -3.453288922036234E-05,
2486286.296527667, A.D. 2095-Feb-12 19:06:59.9904,  2.008355437508640E+01, -2.661804308173483E-03, -2.598897675214121E-01, -3.384926522768029E-05,  3.754781046217445E-03,  1.450420749279833E-05,  1.160026488440736E-01,  2.008523602334602E+01, -3.453171002965143E-05,
2486286.338194333, A.D. 2095-Feb-12 20:06:59.9904,  2.008355296410677E+01, -2.505355127398605E-03, -2.598891632432601E-01, -3.387783512069626E-05,  3.754779647122492E-03,  1.450114529377777E-05,  1.160026405342311E-01,  2.008523458454139E+01, -3.453099041458147E-05,
2486286.379861000, A.D. 2095-Feb-12 21:06:59.9904,  2.008355155192682E+01, -2.348906002882774E-03, -2.598885590926838E-01, -3.390688529656303E-05,  3.754778345864782E-03,  1.449807561349492E-05,  1.160026322245045E-01,  2.008523314575683E+01, -3.453075098320265E-05,
2486286.421527667, A.D. 2095-Feb-12 22:06:59.9904,  2.008355013852563E+01, -2.192456930624309E-03, -2.598879550720610E-01, -3.393646795281098E-05,  3.754777136631647E-03,  1.449487148652425E-05,  1.160026239147732E-01,  2.008523170697146E+01, -3.453104228216786E-05,
2486286.463194333, A.D. 2095-Feb-12 23:06:59.9904,  2.008354872387885E+01, -2.036007907180803E-03, -2.598873511932218E-01, -3.396670081127399E-05,  3.754775997392454E-03,  1.449118840651342E-05,  1.160026156048975E-01,  2.008523026816108E+01, -3.453197756079957E-05,
2486286.504861000, A.D. 2095-Feb-13 00:06:59.9904,  2.008354730795529E+01, -1.879558930535453E-03, -2.598867474890008E-01, -3.399770794111962E-05,  3.754774861877014E-03,  1.448635316329587E-05,  1.160026072946997E-01,  2.008522882929493E+01, -3.453367215892698E-05,
2486286.546527667, A.D. 2095-Feb-13 01:06:59.9904,  2.008354589073735E+01, -1.723110001073892E-03, -2.598861439891719E-01, -3.402890067339424E-05,  3.754773823029742E-03,  1.448192023398235E-05,  1.160025989840803E-01,  2.008522739035579E+01, -3.453555757859758E-05,
2486286.588194333, A.D. 2095-Feb-13 02:06:59.9904,  2.008354447220318E+01, -1.566661107376150E-03, -2.598855406455113E-01, -3.406084602645364E-05,  3.754773116856693E-03,  1.447871401361658E-05,  1.160025906729096E-01,  2.008522595132120E+01, -3.453821147160141E-05,
2486286.629861000, A.D. 2095-Feb-13 03:06:59.9904,  2.008354305232563E+01, -1.410212238504509E-03, -2.598849374216682E-01, -3.409336151256624E-05,  3.754772616671695E-03,  1.447609498353318E-05,  1.160025823610281E-01,  2.008522451216352E+01, -3.454144307183213E-05,
2486286.671527667, A.D. 2095-Feb-13 04:06:59.9904,  2.008354163108316E+01, -1.253763387329657E-03, -2.598843343004168E-01, -3.412635127692244E-05,  3.754772261056805E-03,  1.447375965562282E-05,  1.160025740483100E-01,  2.008522307286100E+01, -3.454515259559952E-05,
2486286.713194333, A.D. 2095-Feb-13 05:06:59.9904,  2.008354020845715E+01, -1.097314548401770E-03, -2.598837312724613E-01, -3.415976451217038E-05,  3.754772027152664E-03,  1.447161316578847E-05,  1.160025657346472E-01,  2.008522163339491E+01, -3.454928800667128E-05,
2486286.754861000, A.D. 2095-Feb-13 06:06:59.9904,  2.008353878443068E+01, -9.408657167482515E-04, -2.598831283297139E-01, -3.419356859445300E-05,  3.754771912456187E-03,  1.446968017900191E-05,  1.160025574199412E-01,  2.008522019374819E+01, -3.455381699914349E-05,
2486286.796527667, A.D. 2095-Feb-13 07:06:59.9904,  2.008353735898810E+01, -7.844168872924240E-04, -2.598825254616576E-01, -3.422773285127315E-05,  3.754771922918352E-03,  1.446804459573254E-05,  1.160025491041010E-01,  2.008521875390509E+01, -3.455870998514034E-05,
2486286.838194333, A.D. 2095-Feb-13 08:06:59.9904,  2.008353593211513E+01, -6.279680546670788E-04, -2.598819226537525E-01, -3.426221979463997E-05,  3.754772065607362E-03,  1.446681050204065E-05,  1.160025407870430E-01,  2.008521731385114E+01, -3.456393082282580E-05,
2486286.879861000, A.D. 2095-Feb-13 09:06:59.9904,  2.008353450379929E+01, -4.715192132631340E-04, -2.598813198871351E-01, -3.429698140676786E-05,  3.754772344592267E-03,  1.446607843092295E-05,  1.160025324686937E-01,  2.008521587357361E+01, -3.456943279512638E-05,
2486286.921527667, A.D. 2095-Feb-13 10:06:59.9904,  2.008353307403034E+01, -3.150703574006486E-04, -2.598807171390673E-01, -3.433195867484703E-05,  3.754772759020889E-03,  1.446593234431753E-05,  1.160025241489923E-01,  2.008521443306196E+01, -3.457515797622155E-05,
2486286.963194333, A.D. 2095-Feb-13 11:06:59.9904,  2.008353164280069E+01, -1.586214815482847E-04, -2.598801143837678E-01, -3.436708305804552E-05,  3.754773302623666E-03,  1.446643384280722E-05,  1.160025158278930E-01,  2.008521299230828E+01, -3.458103862373470E-05,
2486287.004861000, A.D. 2095-Feb-13 12:06:59.9904,  2.008353021010576E+01, -2.172580543204605E-06, -2.598795115933805E-01, -3.440227895334360E-05,  3.754773964081334E-03,  1.446762099855506E-05,  1.160025075053673E-01,  2.008521155130763E+01, -3.458699962951677E-05,
2486287.046527667, A.D. 2095-Feb-13 13:06:59.9904,  2.008352877594423E+01,  1.542763502143947E-04, -2.598789087389291E-01, -3.443746652411597E-05,  3.754774727857019E-03,  1.446950991761447E-05,  1.160024991814054E-01,  2.008521011005831E+01, -3.459296136843689E-05,
2486287.088194333, A.D. 2095-Feb-13 14:06:59.9904,  2.008352734031812E+01,  3.107253146067892E-04, -2.598783057911738E-01, -3.447256448149612E-05,  3.754775575219676E-03,  1.447209769817882E-05,  1.160024908560169E-01,  2.008520866856196E+01, -3.459884251797122E-05,
2486287.129861000, A.D. 2095-Feb-13 15:06:59.9904,  2.008352590323288E+01,  4.671743156874404E-04, -2.598777027213318E-01, -3.450749257647277E-05,  3.754776485281996E-03,  1.447536588598272E-05,  1.160024825292309E-01,  2.008520722682367E+01, -3.460456259492383E-05,
2486287.171527667, A.D. 2095-Feb-13 16:06:59.9904,  2.008352446469718E+01,  6.236233556110959E-04, -2.598770995016543E-01, -3.454217368160155E-05,  3.754777435947486E-03,  1.447928385841744E-05,  1.160024742010956E-01,  2.008520578485173E+01, -3.461004408082063E-05,
2486287.213194333, A.D. 2095-Feb-13 17:06:59.9904,  2.008352302472285E+01,  7.800724356009809E-04, -2.598764961058686E-01, -3.457653542479629E-05,  3.754778404713030E-03,  1.448381181368130E-05,  1.160024658716772E-01,  2.008520434265766E+01, -3.461521409426378E-05,
